ONEWEB-0589             
1 54655U 22166P   24219.14009358 -.00000033  00000+0 -11168-3 0  9997
2 54655  87.9299  19.3654 0002760  86.1424 274.0025 13.21825653 82173
ONEWEB-0590             
1 54656U 22166Q   24219.16373877  .00000061  00000+0  11560-3 0  9995
2 54656  87.9303  19.3694 0001841  97.9042 262.2301 13.21827053 82159
ONEWEB-0591             
1 54657U 22166R   24218.94925681  .00000078  00000+0  15710-3 0  9996
2 54657  87.9298  19.4059 0001981  92.1435 267.9926 13.21826110 81693
ONEWEB-0592             
1 54658U 22166S   24218.95236789  .00001719  00000+0  41286-2 0  9991
2 54658  87.9282  19.3709 0002545  90.6993 269.4432 13.21842918 81577
ONEWEB-0593             
1 54659U 22166T   24218.90036875 -.00000005  00000+0 -42555-4 0  9992
2 54659  87.9298  19.4065 0002066  92.0069 268.1301 13.21823678 81673
ONEWEB-0594             
1 54660U 22166U   24218.91928909 -.00000005  00000+0 -43310-4 0  9993
2 54660  87.9301  19.4044 0001730  89.8414 270.2919 13.21827351 81695
ONEWEB-0595             
1 54661U 22166V   24218.89721857 -.00000013  00000+0 -63420-4 0  9997
2 54661  87.9300  19.3950 0001698  99.1498 260.9828 13.21827139 81665
ONEWEB-0596             
1 54662U 22166W   24218.87040100 -.00000022  00000+0 -84650-4 0  9999
2 54662  87.9302  19.4066 0002152  95.4481 264.6898 13.21827381 81661
